[
  {
    "OBJECT_NAME": "STARLINK-35365",
    "OBJECT_ID": "25243K",
    "EPOCH": "2025-11-11T06:00:02.000160",
    "MEAN_MOTION": 15.74176125,
    "ECCENTRICITY": 0.0001361,
    "INCLINATION": 53.1572,
    "RA_OF_ASC_NODE": 78.5187,
    "ARG_OF_PERICENTER": 88.3872,
    "MEAN_ANOMALY": 15.9267,
    "EPHEMERIS_TYPE": 0,
    "CLASSIFICATION_TYPE": "U",
    "NORAD_CAT_ID": 66186,
    "ELEMENT_SET_NO": 999,
    "REV_AT_EPOCH": 352,
    "BSTAR": 0.0,
    "MEAN_MOTION_DOT": -0.00059494,
    "MEAN_MOTION_DDOT": 0.0,
    "TLE_LINE1": "1 66186U 25243K   25315.25002315 -.00059494  00000+0 -40500-3 0  9991",
    "TLE_LINE2": "2 66186  53.1572  78.5187 0001361  88.3872  15.9267 15.74176125  3524",
    "COMMENT": "Grouped by shell and plane from TLE"
  },
  {
    "OBJECT_NAME": "STARLINK-35350",
    "OBJECT_ID": "25243L",
    "EPOCH": "2025-11-11T06:00:02.000160",
    "MEAN_MOTION": 15.74203215,
    "ECCENTRICITY": 9.04e-05,
    "INCLINATION": 53.1574,
    "RA_OF_ASC_NODE": 78.5148,
    "ARG_OF_PERICENTER": 97.1259,
    "MEAN_ANOMALY": 9.0338,
    "EPHEMERIS_TYPE": 0,
    "CLASSIFICATION_TYPE": "U",
    "NORAD_CAT_ID": 66187,
    "ELEMENT_SET_NO": 999,
    "REV_AT_EPOCH": 352,
    "BSTAR": 0.00013131000000000002,
    "MEAN_MOTION_DOT": 0.00018656,
    "MEAN_MOTION_DDOT": 0.0,
    "TLE_LINE1": "1 66187U 25243L   25315.25002315  .00018656  00000+0  13131-3 0  9995",
    "TLE_LINE2": "2 66187  53.1574  78.5148 0000904  97.1259   9.0338 15.74203215  3527",
    "COMMENT": "Grouped by shell and plane from TLE"
  },
  {
    "OBJECT_NAME": "STARLINK-35041",
    "OBJECT_ID": "25243M",
    "EPOCH": "2025-11-11T06:00:02.000160",
    "MEAN_MOTION": 15.74164628,
    "ECCENTRICITY": 0.000125,
    "INCLINATION": 53.1572,
    "RA_OF_ASC_NODE": 78.499,
    "ARG_OF_PERICENTER": 92.3942,
    "MEAN_ANOMALY": 21.5111,
    "EPHEMERIS_TYPE": 0,
    "CLASSIFICATION_TYPE": "U",
    "NORAD_CAT_ID": 66188,
    "ELEMENT_SET_NO": 999,
    "REV_AT_EPOCH": 357,
    "BSTAR": 0.0,
    "MEAN_MOTION_DOT": -0.00033606,
    "MEAN_MOTION_DDOT": 0.0,
    "TLE_LINE1": "1 66188U 25243M   25315.25002315 -.00033606  00000+0 -22631-3 0  9995",
    "TLE_LINE2": "2 66188  53.1572  78.4990 0001250  92.3942  21.5111 15.74164628  3578",
    "COMMENT": "Grouped by shell and plane from TLE"
  },
  {
    "OBJECT_NAME": "STARLINK-34694",
    "OBJECT_ID": "25243N",
    "EPOCH": "2025-11-11T06:00:02.000160",
    "MEAN_MOTION": 15.74140152,
    "ECCENTRICITY": 0.0001036,
    "INCLINATION": 53.1574,
    "RA_OF_ASC_NODE": 78.4908,
    "ARG_OF_PERICENTER": 106.4456,
    "MEAN_ANOMALY": 11.2974,
    "EPHEMERIS_TYPE": 0,
    "CLASSIFICATION_TYPE": "U",
    "NORAD_CAT_ID": 66189,
    "ELEMENT_SET_NO": 999,
    "REV_AT_EPOCH": 352,
    "BSTAR": 7.6223e-05,
    "MEAN_MOTION_DOT": 0.00010525,
    "MEAN_MOTION_DDOT": 0.0,
    "TLE_LINE1": "1 66189U 25243N   25315.25002315  .00010525  00000+0  76223-4 0  9996",
    "TLE_LINE2": "2 66189  53.1574  78.4908 0001036 106.4456  11.2974 15.74140152  3523",
    "COMMENT": "Grouped by shell and plane from TLE"
  },
  {
    "OBJECT_NAME": "STARLINK-34863",
    "OBJECT_ID": "25243P",
    "EPOCH": "2025-11-11T06:00:02.000160",
    "MEAN_MOTION": 15.74137221,
    "ECCENTRICITY": 0.0001144,
    "INCLINATION": 53.1576,
    "RA_OF_ASC_NODE": 78.506,
    "ARG_OF_PERICENTER": 99.9007,
    "MEAN_ANOMALY": 10.1745,
    "EPHEMERIS_TYPE": 0,
    "CLASSIFICATION_TYPE": "U",
    "NORAD_CAT_ID": 66190,
    "ELEMENT_SET_NO": 999,
    "REV_AT_EPOCH": 352,
    "BSTAR": 0.00017348,
    "MEAN_MOTION_DOT": 0.00024795,
    "MEAN_MOTION_DDOT": 0.0,
    "TLE_LINE1": "1 66190U 25243P   25315.25002315  .00024795  00000+0  17348-3 0  9994",
    "TLE_LINE2": "2 66190  53.1576  78.5060 0001144  99.9007  10.1745 15.74137221  3522",
    "COMMENT": "Grouped by shell and plane from TLE"
  },
  {
    "OBJECT_NAME": "STARLINK-35061",
    "OBJECT_ID": "25243Q",
    "EPOCH": "2025-11-11T06:00:02.000160",
    "MEAN_MOTION": 15.74144666,
    "ECCENTRICITY": 0.0001071,
    "INCLINATION": 53.1577,
    "RA_OF_ASC_NODE": 78.4668,
    "ARG_OF_PERICENTER": 88.9986,
    "MEAN_ANOMALY": 40.2408,
    "EPHEMERIS_TYPE": 0,
    "CLASSIFICATION_TYPE": "U",
    "NORAD_CAT_ID": 66191,
    "ELEMENT_SET_NO": 999,
    "REV_AT_EPOCH": 357,
    "BSTAR": 0.00018604000000000003,
    "MEAN_MOTION_DOT": 0.00026651,
    "MEAN_MOTION_DDOT": 0.0,
    "TLE_LINE1": "1 66191U 25243Q   25315.25002315  .00026651  00000+0  18604-3 0  9994",
    "TLE_LINE2": "2 66191  53.1577  78.4668 0001071  88.9986  40.2408 15.74144666  3576",
    "COMMENT": "Grouped by shell and plane from TLE"
  },
  {
    "OBJECT_NAME": "STARLINK-34937",
    "OBJECT_ID": "25243R",
    "EPOCH": "2025-11-11T06:00:02.000160",
    "MEAN_MOTION": 15.74120188,
    "ECCENTRICITY": 0.000125,
    "INCLINATION": 53.1577,
    "RA_OF_ASC_NODE": 78.4707,
    "ARG_OF_PERICENTER": 76.0282,
    "MEAN_ANOMALY": 51.298,
    "EPHEMERIS_TYPE": 0,
    "CLASSIFICATION_TYPE": "U",
    "NORAD_CAT_ID": 66192,
    "ELEMENT_SET_NO": 999,
    "REV_AT_EPOCH": 331,
    "BSTAR": 0.00055731,
    "MEAN_MOTION_DOT": 0.00081539,
    "MEAN_MOTION_DDOT": 0.0,
    "TLE_LINE1": "1 66192U 25243R   25315.25002315  .00081539  00000+0  55731-3 0  9993",
    "TLE_LINE2": "2 66192  53.1577  78.4707 0001250  76.0282  51.2980 15.74120188  3319",
    "COMMENT": "Grouped by shell and plane from TLE"
  },
  {
    "OBJECT_NAME": "STARLINK-35197",
    "OBJECT_ID": "25243S",
    "EPOCH": "2025-11-11T06:00:02.000160",
    "MEAN_MOTION": 15.74105772,
    "ECCENTRICITY": 0.0001305,
    "INCLINATION": 53.1578,
    "RA_OF_ASC_NODE": 78.4739,
    "ARG_OF_PERICENTER": 58.8235,
    "MEAN_ANOMALY": 66.5959,
    "EPHEMERIS_TYPE": 0,
    "CLASSIFICATION_TYPE": "U",
    "NORAD_CAT_ID": 66193,
    "ELEMENT_SET_NO": 999,
    "REV_AT_EPOCH": 352,
    "BSTAR": 0.00062119,
    "MEAN_MOTION_DOT": 0.00091005,
    "MEAN_MOTION_DDOT": 0.0,
    "TLE_LINE1": "1 66193U 25243S   25315.25002315  .00091005  00000+0  62119-3 0  9991",
    "TLE_LINE2": "2 66193  53.1578  78.4739 0001305  58.8235  66.5959 15.74105772  3523",
    "COMMENT": "Grouped by shell and plane from TLE"
  },
  {
    "OBJECT_NAME": "STARLINK-35374",
    "OBJECT_ID": "25243T",
    "EPOCH": "2025-11-11T06:00:02.000160",
    "MEAN_MOTION": 15.74131389,
    "ECCENTRICITY": 0.000104,
    "INCLINATION": 53.1576,
    "RA_OF_ASC_NODE": 78.4781,
    "ARG_OF_PERICENTER": 98.5087,
    "MEAN_ANOMALY": 24.986,
    "EPHEMERIS_TYPE": 0,
    "CLASSIFICATION_TYPE": "U",
    "NORAD_CAT_ID": 66194,
    "ELEMENT_SET_NO": 999,
    "REV_AT_EPOCH": 352,
    "BSTAR": 0.00021163,
    "MEAN_MOTION_DOT": 0.00030399,
    "MEAN_MOTION_DDOT": 0.0,
    "TLE_LINE1": "1 66194U 25243T   25315.25002315  .00030399  00000+0  21163-3 0  9995",
    "TLE_LINE2": "2 66194  53.1576  78.4781 0001040  98.5087  24.9860 15.74131389  3523",
    "COMMENT": "Grouped by shell and plane from TLE"
  },
  {
    "OBJECT_NAME": "STARLINK-34813",
    "OBJECT_ID": "25243U",
    "EPOCH": "2025-11-11T06:00:02.000160",
    "MEAN_MOTION": 15.74153551,
    "ECCENTRICITY": 0.0001287,
    "INCLINATION": 53.1571,
    "RA_OF_ASC_NODE": 78.4827,
    "ARG_OF_PERICENTER": 90.7771,
    "MEAN_ANOMALY": 30.7963,
    "EPHEMERIS_TYPE": 0,
    "CLASSIFICATION_TYPE": "U",
    "NORAD_CAT_ID": 66195,
    "ELEMENT_SET_NO": 999,
    "REV_AT_EPOCH": 352,
    "BSTAR": 0.0,
    "MEAN_MOTION_DOT": -0.000233,
    "MEAN_MOTION_DDOT": 0.0,
    "TLE_LINE1": "1 66195U 25243U   25315.25002315 -.00023300  00000+0 -15547-3 0  9991",
    "TLE_LINE2": "2 66195  53.1571  78.4827 0001287  90.7771  30.7963 15.74153551  3521",
    "COMMENT": "Grouped by shell and plane from TLE"
  },
  {
    "OBJECT_NAME": "STARLINK-35409",
    "OBJECT_ID": "25243V",
    "EPOCH": "2025-11-11T06:00:02.000160",
    "MEAN_MOTION": 15.74123832,
    "ECCENTRICITY": 0.0001074,
    "INCLINATION": 53.1573,
    "RA_OF_ASC_NODE": 78.487,
    "ARG_OF_PERICENTER": 93.34,
    "MEAN_ANOMALY": 26.3222,
    "EPHEMERIS_TYPE": 0,
    "CLASSIFICATION_TYPE": "U",
    "NORAD_CAT_ID": 66196,
    "ELEMENT_SET_NO": 999,
    "REV_AT_EPOCH": 352,
    "BSTAR": 0.0004813,
    "MEAN_MOTION_DOT": 0.00070248,
    "MEAN_MOTION_DDOT": 0.0,
    "TLE_LINE1": "1 66196U 25243V   25315.25002315  .00070248  00000+0  48130-3 0  9997",
    "TLE_LINE2": "2 66196  53.1573  78.4870 0001074  93.3400  26.3222 15.74123832  3522",
    "COMMENT": "Grouped by shell and plane from TLE"
  },
  {
    "OBJECT_NAME": "STARLINK-35518",
    "OBJECT_ID": "25243X",
    "EPOCH": "2025-11-11T06:00:02.000160",
    "MEAN_MOTION": 15.74149907,
    "ECCENTRICITY": 0.000105,
    "INCLINATION": 53.1574,
    "RA_OF_ASC_NODE": 78.4946,
    "ARG_OF_PERICENTER": 94.9352,
    "MEAN_ANOMALY": 20.8879,
    "EPHEMERIS_TYPE": 0,
    "CLASSIFICATION_TYPE": "U",
    "NORAD_CAT_ID": 66197,
    "ELEMENT_SET_NO": 999,
    "REV_AT_EPOCH": 352,
    "BSTAR": 6.3792e-05,
    "MEAN_MOTION_DOT": 8.707e-05,
    "MEAN_MOTION_DDOT": 0.0,
    "TLE_LINE1": "1 66197U 25243X   25315.25002315  .00008707  00000+0  63792-4 0  9991",
    "TLE_LINE2": "2 66197  53.1574  78.4946 0001050  94.9352  20.8879 15.74149907  3523",
    "COMMENT": "Grouped by shell and plane from TLE"
  },
  {
    "OBJECT_NAME": "STARLINK-35259",
    "OBJECT_ID": "25243W",
    "EPOCH": "2025-11-11T06:00:02.000160",
    "MEAN_MOTION": 15.74109378,
    "ECCENTRICITY": 9.71e-05,
    "INCLINATION": 53.1582,
    "RA_OF_ASC_NODE": 78.4137,
    "ARG_OF_PERICENTER": 90.6382,
    "MEAN_ANOMALY": 63.5239,
    "EPHEMERIS_TYPE": 0,
    "CLASSIFICATION_TYPE": "U",
    "NORAD_CAT_ID": 66198,
    "ELEMENT_SET_NO": 999,
    "REV_AT_EPOCH": 352,
    "BSTAR": 0.0007287799999999999,
    "MEAN_MOTION_DOT": 0.00107098,
    "MEAN_MOTION_DDOT": 0.0,
    "TLE_LINE1": "1 66198U 25243W   25315.25002315  .00107098  00000+0  72878-3 0  9999",
    "TLE_LINE2": "2 66198  53.1582  78.4137 0000971  90.6382  63.5239 15.74109378  3524",
    "COMMENT": "Grouped by shell and plane from TLE"
  }
]